[{"OBJECT_NAME":"STARLINK-31808","OBJECT_ID":"2024-090X","EPOCH":"2026-03-09T08:30:38.003328","MEAN_MOTION":15.27585789,"ECCENTRICITY":2.702e-5,"INCLINATION":42.9978,"RA_OF_ASC_NODE":184.9759,"ARG_OF_PERICENTER":283.0419,"MEAN_ANOMALY":77.0403,"EPHEMERIS_TYPE":0,"CLASSIFICATION_TYPE":"U","NORAD_CAT_ID":59751,"ELEMENT_SET_NO":999,"REV_AT_EPOCH":10338,"BSTAR":-7.4868097e-5,"MEAN_MOTION_DOT":-2.321e-5,"MEAN_MOTION_DDOT":0},{"OBJECT_NAME":"OBJECT J","OBJECT_ID":"2025-155J","EPOCH":"2026-03-09T22:09:22.347648","MEAN_MOTION":15.2758258,"ECCENTRICITY":0.00088188,"INCLINATION":97.4475,"RA_OF_ASC_NODE":37.3123,"ARG_OF_PERICENTER":150.071,"MEAN_ANOMALY":210.1035,"EPHEMERIS_TYPE":0,"CLASSIFICATION_TYPE":"U","NORAD_CAT_ID":64884,"ELEMENT_SET_NO":999,"REV_AT_EPOCH":6559,"BSTAR":0.00051444498,"MEAN_MOTION_DOT":0.00013827,"MEAN_MOTION_DDOT":0}]
